{
  "type": "FeatureCollection",
  "features": [
    {
      "type": "Feature",
      "properties": {
        "norad_id": 42989,
        "name": "SKYSAT-C9",
        "group": "resource",
        "lat": 78.84123795358408,
        "lon": 81.32860789523517,
        "alt_km": 442.99491778124957,
        "timestamp": "2025-12-18T08:58:43.049192+00:00",
        "meta_object_name": "SKYSAT-C9",
        "meta_object_id": "2017-068C",
        "meta_epoch": "2025-12-17T20:07:06.783744",
        "meta_mean_motion": 15.36178547,
        "meta_eccentricity": 0.00105739,
        "meta_inclination": 97.4188,
        "meta_ra_of_asc_node": 122.1322,
        "meta_arg_of_pericenter": 71.4437,
        "meta_mean_anomaly": 288.7954,
        "meta_ephemeris_type": 0,
        "meta_classification_type": "U",
        "meta_norad_cat_id": 42989,
        "meta_element_set_no": 999,
        "meta_rev_at_epoch": 45486,
        "meta_bstar": 0.00031593767,
        "meta_mean_motion_dot": 0.00011079,
        "meta_mean_motion_ddot": 0,
        "tle_line1": "1 42989U 17068C   25351.83827296  .00011079  00000+0  31594-3 0  9997",
        "tle_line2": "2 42989  97.4188 122.1322 0010573  71.4437 288.7954 15.36178547454863"
      },
      "geometry": {
        "type": "Point",
        "coordinates": [
          81.32860789523517,
          78.84123795358408
        ]
      }
    },
    {
      "type": "Feature",
      "properties": {
        "norad_id": 42990,
        "name": "SKYSAT-C8",
        "group": "resource",
        "lat": -11.146982427132397,
        "lon": 123.87163071529818,
        "alt_km": 470.40055336943533,
        "timestamp": "2025-12-18T08:58:43.049202+00:00",
        "meta_object_name": "SKYSAT-C8",
        "meta_object_id": "2017-068D",
        "meta_epoch": "2025-12-17T07:57:46.624896",
        "meta_mean_motion": 15.33021868,
        "meta_eccentricity": 0.00012634,
        "meta_inclination": 97.4278,
        "meta_ra_of_asc_node": 121.3518,
        "meta_arg_of_pericenter": 326.0348,
        "meta_mean_anomaly": 34.0813,
        "meta_ephemeris_type": 0,
        "meta_classification_type": "U",
        "meta_norad_cat_id": 42990,
        "meta_element_set_no": 999,
        "meta_rev_at_epoch": 45441,
        "meta_bstar": 0.00030707047,
        "meta_mean_motion_dot": 9.718e-05,
        "meta_mean_motion_ddot": 0,
        "tle_line1": "1 42990U 17068D   25351.33178964  .00009718  00000+0  30707-3 0  9997",
        "tle_line2": "2 42990  97.4278 121.3518 0001263 326.0348  34.0813 15.33021868454416"
      },
      "geometry": {
        "type": "Point",
        "coordinates": [
          123.87163071529818,
          -11.146982427132397
        ]
      }
    },
    {
      "type": "Feature",
      "properties": {
        "norad_id": 42991,
        "name": "SKYSAT-C7",
        "group": "resource",
        "lat": -12.27066105674581,
        "lon": -58.19127183811166,
        "alt_km": 477.5350786376639,
        "timestamp": "2025-12-18T08:58:43.049212+00:00",
        "meta_object_name": "SKYSAT-C7",
        "meta_object_id": "2017-068E",
        "meta_epoch": "2025-12-17T19:36:19.860192",
        "meta_mean_motion": 15.32432808,
        "meta_eccentricity": 0.00073213,
        "meta_inclination": 97.4288,
        "meta_ra_of_asc_node": 122.8758,
        "meta_arg_of_pericenter": 41.4878,
        "meta_mean_anomaly": 318.6918,
        "meta_ephemeris_type": 0,
        "meta_classification_type": "U",
        "meta_norad_cat_id": 42991,
        "meta_element_set_no": 999,
        "meta_rev_at_epoch": 45455,
        "meta_bstar": 0.00029117844,
        "meta_mean_motion_dot": 9.048e-05,
        "meta_mean_motion_ddot": 0,
        "tle_line1": "1 42991U 17068E   25351.81689653  .00009048  00000+0  29118-3 0  9993",
        "tle_line2": "2 42991  97.4288 122.8758 0007321  41.4878 318.6918 15.32432808454558"
      },
      "geometry": {
        "type": "Point",
        "coordinates": [
          -58.19127183811166,
          -12.27066105674581
        ]
      }
    },
    {
      "type": "Feature",
      "properties": {
        "norad_id": 42992,
        "name": "SKYSAT-C6",
        "group": "resource",
        "lat": -66.78789085052563,
        "lon": 141.5909037688317,
        "alt_km": 480.7533192926003,
        "timestamp": "2025-12-18T08:58:43.049222+00:00",
        "meta_object_name": "SKYSAT-C6",
        "meta_object_id": "2017-068F",
        "meta_epoch": "2025-12-17T20:43:51.367008",
        "meta_mean_motion": 15.31593252,
        "meta_eccentricity": 0.00050839,
        "meta_inclination": 97.4321,
        "meta_ra_of_asc_node": 123.3576,
        "meta_arg_of_pericenter": 68.6397,
        "meta_mean_anomaly": 291.5387,
        "meta_ephemeris_type": 0,
        "meta_classification_type": "U",
        "meta_norad_cat_id": 42992,
        "meta_element_set_no": 999,
        "meta_rev_at_epoch": 45454,
        "meta_bstar": 0.00029529927,
        "meta_mean_motion_dot": 8.935e-05,
        "meta_mean_motion_ddot": 0,
        "tle_line1": "1 42992U 17068F   25351.86378897  .00008935  00000+0  29530-3 0  9996",
        "tle_line2": "2 42992  97.4321 123.3576 0005083  68.6397 291.5387 15.31593252454549"
      },
      "geometry": {
        "type": "Point",
        "coordinates": [
          141.5909037688317,
          -66.78789085052563
        ]
      }
    },
    {
      "type": "Feature",
      "properties": {
        "norad_id": 43111,
        "name": "CARTOSAT-2F",
        "group": "resource",
        "lat": 29.033588726129466,
        "lon": -125.92371522533661,
        "alt_km": 505.58883409443024,
        "timestamp": "2025-12-18T08:58:43.049233+00:00",
        "meta_object_name": "CARTOSAT-2F",
        "meta_object_id": "2018-004A",
        "meta_epoch": "2025-12-17T22:50:02.751936",
        "meta_mean_motion": 15.19327484,
        "meta_eccentricity": 0.00014551,
        "meta_inclination": 97.432,
        "meta_ra_of_asc_node": 49.5052,
        "meta_arg_of_pericenter": 139.4075,
        "meta_mean_anomaly": 220.7268,
        "meta_ephemeris_type": 0,
        "meta_classification_type": "U",
        "meta_norad_cat_id": 43111,
        "meta_element_set_no": 999,
        "meta_rev_at_epoch": 43981,
        "meta_bstar": 0.00020202722,
        "meta_mean_motion_dot": 4.2e-05,
        "meta_mean_motion_ddot": 0,
        "tle_line1": "1 43111U 18004A   25351.95142074  .00004200  00000+0  20203-3 0  9996",
        "tle_line2": "2 43111  97.4320  49.5052 0001455 139.4075 220.7268 15.19327484439812"
      },
      "geometry": {
        "type": "Point",
        "coordinates": [
          -125.92371522533661,
          29.033588726129466
        ]
      }
    },
    {
      "type": "Feature",
      "properties": {
        "norad_id": 43259,
        "name": "GAOFEN-1 02",
        "group": "resource",
        "lat": 50.518735473250416,
        "lon": -119.90317782492038,
        "alt_km": 635.4287988396536,
        "timestamp": "2025-12-18T08:58:43.049243+00:00",
        "meta_object_name": "GAOFEN-1 02",
        "meta_object_id": "2018-031A",
        "meta_epoch": "2025-12-17T22:38:18.079584",
        "meta_mean_motion": 14.76427127,
        "meta_eccentricity": 0.00020448,
        "meta_inclination": 98.0807,
        "meta_ra_of_asc_node": 49.7348,
        "meta_arg_of_pericenter": 196.9575,
        "meta_mean_anomaly": 163.1566,
        "meta_ephemeris_type": 0,
        "meta_classification_type": "U",
        "meta_norad_cat_id": 43259,
        "meta_element_set_no": 999,
        "meta_rev_at_epoch": 41595,
        "meta_bstar": 0.0001533008,
        "meta_mean_motion_dot": 1.014e-05,
        "meta_mean_motion_ddot": 0,
        "tle_line1": "1 43259U 18031A   25351.94326481  .00001014  00000+0  15330-3 0  9999",
        "tle_line2": "2 43259  98.0807  49.7348 0002044 196.9575 163.1566 14.76427127415957"
      },
      "geometry": {
        "type": "Point",
        "coordinates": [
          -119.90317782492038,
          50.518735473250416
        ]
      }
    },
    {
      "type": "Feature",
      "properties": {
        "norad_id": 43260,
        "name": "GAOFEN-1 03",
        "group": "resource",
        "lat": -63.21938805897383,
        "lon": -146.3044612332302,
        "alt_km": 646.9575499855291,
        "timestamp": "2025-12-18T08:58:43.049253+00:00",
        "meta_object_name": "GAOFEN-1 03",
        "meta_object_id": "2018-031B",
        "meta_epoch": "2025-12-17T23:44:33.406656",
        "meta_mean_motion": 14.76447688,
        "meta_eccentricity": 0.00017631,
        "meta_inclination": 98.0792,
        "meta_ra_of_asc_node": 49.6568,
        "meta_arg_of_pericenter": 295.5101,
        "meta_mean_anomaly": 64.5926,
        "meta_ephemeris_type": 0,
        "meta_classification_type": "U",
        "meta_norad_cat_id": 43260,
        "meta_element_set_no": 999,
        "meta_rev_at_epoch": 41595,
        "meta_bstar": 0.00011833028,
        "meta_mean_motion_dot": 7.71e-06,
        "meta_mean_motion_ddot": 0,
        "tle_line1": "1 43260U 18031B   25351.98927554  .00000771  00000+0  11833-3 0  9996",
        "tle_line2": "2 43260  98.0792  49.6568 0001763 295.5101  64.5926 14.76447688415951"
      },
      "geometry": {
        "type": "Point",
        "coordinates": [
          -146.3044612332302,
          -63.21938805897383
        ]
      }
    }
  ]
}